{"type": "FeatureCollection", "features": [ {"type": "Feature", "properties": {"norad_id": 42741, "name": "EUTELSAT 172B", "group": "eutelsat", "lat": 0.010167920558190272, "lon": 73.92014024155, "alt_km": 35784.98744849652, "timestamp": "2025-12-20T11:30:28.042477+00:00", "meta": {"OBJECT_NAME": "EUTELSAT 172B", "OBJECT_ID": "2017-029B", "EPOCH": "2025-12-20T02:16:38.768160", "MEAN_MOTION": 1.00272189, "ECCENTRICITY": 2.32e-05, "INCLINATION": 0.0398, "RA_OF_ASC_NODE": 130.7806, "ARG_OF_PERICENTER": 314.1582, "MEAN_ANOMALY": 210.1564, "EPHEMERIS_TYPE": 0, "CLASSIFICATION_TYPE": "U", "NORAD_CAT_ID": 42741, "ELEMENT_SET_NO": 999, "REV_AT_EPOCH": 3193, "BSTAR": 0, "MEAN_MOTION_DOT": 1.9e-07, "MEAN_MOTION_DDOT": 0}, "tle": {"line1": "1 42741U 17029B   25354.09489315  .00000019  00000+0  00000+0 0  9993", "line2": "2 42741   0.0398 130.7806 0000232 314.1582 210.1564  1.00272189 31931"}}, "geometry": {"type": "Point", "coordinates": [73.92014024155, 0.010167920558190272]}}, {"type": "Feature", "properties": {"norad_id": 44334, "name": "EUTELSAT 7C", "group": "eutelsat", "lat": 0.04509907126359427, "lon": -91.08529721337534, "alt_km": 35773.92268093129, "timestamp": "2025-12-20T11:30:28.042488+00:00", "meta": {"OBJECT_NAME": "EUTELSAT 7C", "OBJECT_ID": "2019-034B", "EPOCH": "2025-12-20T02:43:38.882208", "MEAN_MOTION": 1.00270718, "ECCENTRICITY": 0.0003051, "INCLINATION": 0.0731, "RA_OF_ASC_NODE": 179.4105, "ARG_OF_PERICENTER": 73.3864, "MEAN_ANOMALY": 244.0536, "EPHEMERIS_TYPE": 0, "CLASSIFICATION_TYPE": "U", "NORAD_CAT_ID": 44334, "ELEMENT_SET_NO": 999, "REV_AT_EPOCH": 504, "BSTAR": 0, "MEAN_MOTION_DOT": 7.2e-07, "MEAN_MOTION_DDOT": 0}, "tle": {"line1": "1 44334U 19034B   25354.11364447  .00000072  00000+0  00000+0 0  9991", "line2": "2 44334   0.0731 179.4105 0003051  73.3864 244.0536  1.00270718  5047"}}, "geometry": {"type": "Point", "coordinates": [-91.08529721337534, 0.04509907126359427]}}, {"type": "Feature", "properties": {"norad_id": 44624, "name": "EUTELSAT 5 WEST B", "group": "eutelsat", "lat": -0.09213052677806231, "lon": -103.08175194240526, "alt_km": 35773.80020366156, "timestamp": "2025-12-20T11:30:28.042500+00:00", "meta": {"OBJECT_NAME": "EUTELSAT 5 WEST B", "OBJECT_ID": "2019-067A", "EPOCH": "2025-12-20T02:56:07.768896", "MEAN_MOTION": 1.00271302, "ECCENTRICITY": 0.0002998, "INCLINATION": 0.0677, "RA_OF_ASC_NODE": 334.1279, "ARG_OF_PERICENTER": 294.9809, "MEAN_ANOMALY": 218.8907, "EPHEMERIS_TYPE": 0, "CLASSIFICATION_TYPE": "U", "NORAD_CAT_ID": 44624, "ELEMENT_SET_NO": 999, "REV_AT_EPOCH": 2264, "BSTAR": 0, "MEAN_MOTION_DOT": -1.8e-07, "MEAN_MOTION_DDOT": 0}, "tle": {"line1": "1 44624U 19067A   25354.12231214 -.00000018  00000+0  00000+0 0  9996", "line2": "2 44624   0.0677 334.1279 0002998 294.9809 218.8907  1.00271302 22645"}}, "geometry": {"type": "Point", "coordinates": [-103.08175194240526, -0.09213052677806231]}}, {"type": "Feature", "properties": {"norad_id": 45027, "name": "EUTELSAT KONNECT", "group": "eutelsat", "lat": -0.020422965768044723, "lon": -90.88330372891514, "alt_km": 35781.394310769014, "timestamp": "2025-12-20T11:30:28.042511+00:00", "meta": {"OBJECT_NAME": "EUTELSAT KONNECT", "OBJECT_ID": "2020-005B", "EPOCH": "2025-12-20T02:59:37.434912", "MEAN_MOTION": 1.00269788, "ECCENTRICITY": 0.0001294, "INCLINATION": 0.0715, "RA_OF_ASC_NODE": 94.8769, "ARG_OF_PERICENTER": 191.9092, "MEAN_ANOMALY": 214.2865, "EPHEMERIS_TYPE": 0, "CLASSIFICATION_TYPE": "U", "NORAD_CAT_ID": 45027, "ELEMENT_SET_NO": 999, "REV_AT_EPOCH": 2254, "BSTAR": 0, "MEAN_MOTION_DOT": 7.3e-07, "MEAN_MOTION_DDOT": 0}, "tle": {"line1": "1 45027U 20005B   25354.12473883  .00000073  00000+0  00000+0 0  9998", "line2": "2 45027   0.0715  94.8769 0001294 191.9092 214.2865  1.00269788 22545"}}, "geometry": {"type": "Point", "coordinates": [-90.88330372891514, -0.020422965768044723]}}, {"type": "Feature", "properties": {"norad_id": 49056, "name": "EUTELSAT QUANTUM", "group": "eutelsat", "lat": -0.03838925665324185, "lon": -50.355373408037316, "alt_km": 35773.85479769487, "timestamp": "2025-12-20T11:30:28.042523+00:00", "meta": {"OBJECT_NAME": "EUTELSAT QUANTUM", "OBJECT_ID": "2021-069B", "EPOCH": "2025-12-20T03:11:06.335808", "MEAN_MOTION": 1.0027193, "ECCENTRICITY": 0.0003331, "INCLINATION": 0.0185, "RA_OF_ASC_NODE": 31.6065, "ARG_OF_PERICENTER": 247.5721, "MEAN_ANOMALY": 265.2736, "EPHEMERIS_TYPE": 0, "CLASSIFICATION_TYPE": "U", "NORAD_CAT_ID": 49056, "ELEMENT_SET_NO": 999, "REV_AT_EPOCH": 1613, "BSTAR": 0, "MEAN_MOTION_DOT": 1.5e-06, "MEAN_MOTION_DDOT": 0}, "tle": {"line1": "1 49056U 21069B   25354.13271222  .00000150  00000+0  00000+0 0  9995", "line2": "2 49056   0.0185  31.6065 0003331 247.5721 265.2736  1.00271930 16134"}}, "geometry": {"type": "Point", "coordinates": [-50.355373408037316, -0.03838925665324185]}}, {"type": "Feature", "properties": {"norad_id": 53765, "name": "EUTELSAT KONNECT VHTS", "group": "eutelsat", "lat": -0.013263619084415099, "lon": -95.30237465997254, "alt_km": 35775.73764285943, "timestamp": "2025-12-20T11:30:28.042534+00:00", "meta": {"OBJECT_NAME": "EUTELSAT KONNECT VHTS", "OBJECT_ID": "2022-110A", "EPOCH": "2025-12-20T03:48:38.814048", "MEAN_MOTION": 1.00276689, "ECCENTRICITY": 0.0002393, "INCLINATION": 0.0642, "RA_OF_ASC_NODE": 98.8087, "ARG_OF_PERICENTER": 137.8855, "MEAN_ANOMALY": 272.2232, "EPHEMERIS_TYPE": 0, "CLASSIFICATION_TYPE": "U", "NORAD_CAT_ID": 53765, "ELEMENT_SET_NO": 999, "REV_AT_EPOCH": 503, "BSTAR": 0, "MEAN_MOTION_DOT": 4.2e-07, "MEAN_MOTION_DDOT": 0}, "tle": {"line1": "1 53765U 22110A   25354.15878257  .00000042  00000+0  00000+0 0  9998", "line2": "2 53765   0.0642  98.8087 0002393 137.8855 272.2232  1.00276689  5031"}}, "geometry": {"type": "Point", "coordinates": [-95.30237465997254, -0.013263619084415099]}}, {"type": "Feature", "properties": {"norad_id": 54048, "name": "EUTELSAT HOTBIRD 13F", "group": "eutelsat", "lat": -0.03813579442979001, "lon": -85.11287580750019, "alt_km": 35785.880795237856, "timestamp": "2025-12-20T11:30:28.042545+00:00", "meta": {"OBJECT_NAME": "EUTELSAT HOTBIRD 13F", "OBJECT_ID": "2022-134A", "EPOCH": "2025-12-20T03:40:38.651232", "MEAN_MOTION": 1.00272187, "ECCENTRICITY": 0.000238, "INCLINATION": 0.0484, "RA_OF_ASC_NODE": 295.5573, "ARG_OF_PERICENTER": 68.8834, "MEAN_ANOMALY": 152.7054, "EPHEMERIS_TYPE": 0, "CLASSIFICATION_TYPE": "U", "NORAD_CAT_ID": 54048, "ELEMENT_SET_NO": 999, "REV_AT_EPOCH": 1158, "BSTAR": 0, "MEAN_MOTION_DOT": 1.11e-06, "MEAN_MOTION_DDOT": 0}, "tle": {"line1": "1 54048U 22134A   25354.15322513  .00000111  00000+0  00000+0 0  9995", "line2": "2 54048   0.0484 295.5573 0002380  68.8834 152.7054  1.00272187 11582"}}, "geometry": {"type": "Point", "coordinates": [-85.11287580750019, -0.03813579442979001]}}, {"type": "Feature", "properties": {"norad_id": 54225, "name": "EUTELSAT HOTBIRD 13G", "group": "eutelsat", "lat": -0.0036811189576385207, "lon": -85.06752072932876, "alt_km": 35787.255223664935, "timestamp": "2025-12-20T11:30:28.042557+00:00", "meta": {"OBJECT_NAME": "EUTELSAT HOTBIRD 13G", "OBJECT_ID": "2022-146A", "EPOCH": "2025-12-19T18:27:37.056960", "MEAN_MOTION": 1.0027241, "ECCENTRICITY": 0.00017892, "INCLINATION": 0.0515, "RA_OF_ASC_NODE": 225.8744, "ARG_OF_PERICENTER": 308.1908, "MEAN_ANOMALY": 204.4423, "EPHEMERIS_TYPE": 0, "CLASSIFICATION_TYPE": "U", "NORAD_CAT_ID": 54225, "ELEMENT_SET_NO": 999, "REV_AT_EPOCH": 566, "BSTAR": 0, "MEAN_MOTION_DOT": 1.12e-06, "MEAN_MOTION_DDOT": 0}, "tle": {"line1": "1 54225U 22146A   25353.76917890  .00000112  00000+0  00000+0 0  9990", "line2": "2 54225   0.0515 225.8744 0001789 308.1908 204.4423  1.00272410  5660"}}, "geometry": {"type": "Point", "coordinates": [-85.06752072932876, -0.0036811189576385207]}}, {"type": "Feature", "properties": {"norad_id": 54259, "name": "EUTELSAT 10B", "group": "eutelsat", "lat": -0.02158585664330377, "lon": -88.07106843728732, "alt_km": 35788.16433375692, "timestamp": "2025-12-20T11:30:28.042568+00:00", "meta": {"OBJECT_NAME": "EUTELSAT 10B", "OBJECT_ID": "2022-157A", "EPOCH": "2025-12-20T03:00:22.362912", "MEAN_MOTION": 1.00274144, "ECCENTRICITY": 6.75e-05, "INCLINATION": 0.0606, "RA_OF_ASC_NODE": 97.5404, "ARG_OF_PERICENTER": 8.9249, "MEAN_ANOMALY": 37.5953, "EPHEMERIS_TYPE": 0, "CLASSIFICATION_TYPE": "U", "NORAD_CAT_ID": 54259, "ELEMENT_SET_NO": 999, "REV_AT_EPOCH": 1123, "BSTAR": 0, "MEAN_MOTION_DOT": 9.3e-07, "MEAN_MOTION_DDOT": 0}, "tle": {"line1": "1 54259U 22157A   25354.12525883  .00000093  00000+0  00000+0 0  9995", "line2": "2 54259   0.0606  97.5404 0000675   8.9249  37.5953  1.00274144 11230"}}, "geometry": {"type": "Point", "coordinates": [-88.07106843728732, -0.02158585664330377]}}, {"type": "Feature", "properties": {"norad_id": 59346, "name": "EUTELSAT 36D", "group": "eutelsat", "lat": -0.048417153492244264, "lon": -62.24306122260584, "alt_km": 35785.08545630736, "timestamp": "2025-12-20T11:30:28.042579+00:00", "meta": {"OBJECT_NAME": "EUTELSAT 36D", "OBJECT_ID": "2024-059A", "EPOCH": "2025-12-19T22:17:14.699904", "MEAN_MOTION": 1.0027216, "ECCENTRICITY": 6.51e-05, "INCLINATION": 0.0247, "RA_OF_ASC_NODE": 22.0433, "ARG_OF_PERICENTER": 347.9809, "MEAN_ANOMALY": 88.8998, "EPHEMERIS_TYPE": 0, "CLASSIFICATION_TYPE": "U", "NORAD_CAT_ID": 59346, "ELEMENT_SET_NO": 999, "REV_AT_EPOCH": 635, "BSTAR": 0, "MEAN_MOTION_DOT": 0, "MEAN_MOTION_DDOT": 0}, "tle": {"line1": "1 59346U 24059A   25353.92864236  .00000000  00000+0  00000+0 0  9993", "line2": "2 59346   0.0247  22.0433 0000651 347.9809  88.8998  1.00272160  6351"}}, "geometry": {"type": "Point", "coordinates": [-62.24306122260584, -0.048417153492244264]}}]}